      2.10          N: GNSS NAV DATA                        RINEX VERSION / TYPE
fic2rin                                 05/16/2020 00:17:57 PGM / RUN BY / DATE
                                                            END OF HEADER
 3 20  5 15 12  0  0.0-1.764264889061e-04-1.216449163621e-11 0.000000000000e+00
    7.300000000000e+01-7.384375000000e+01 4.367681931484e-09 2.349490218978e+00
   -3.727152943611e-06 2.801843220368e-03 6.407499313354e-06 5.153559175491e+03
    4.752000000000e+05 3.725290298462e-09-1.919917991582e+00-4.284083843231e-08
    9.653278766151e-01 2.575625000000e+02 6.996124877712e-01-8.077122158844e-09
    3.035840740667e-11 1.000000000000e+00 2.105000000000e+03 0.000000000000e+00
    2.400000000000e+00 0.000000000000e+00 1.862645149231e-09 7.300000000000e+01
    4.680000000000e+05 4.000000000000e+00
16 20  5 15 12  0  0.0-1.584426499903e-04-4.547473508865e-12 0.000000000000e+00
    5.000000000000e+00 8.906250000000e+00 4.308393747607e-09 1.000474723388e-01
    5.811452865601e-07 1.150962559041e-02 7.065013051033e-06 5.153758781433e+03
    4.752000000000e+05 5.774199962616e-08 1.310139139594e+00 1.136213541031e-07
    9.785146040895e-01 2.492187500000e+02 6.310222452951e-01-8.103194673441e-09
   -4.671623163285e-10 1.000000000000e+00 2.105000000000e+03 0.000000000000e+00
    2.400000000000e+00 0.000000000000e+00-1.071020960808e-08 5.000000000000e+00
    4.680000000000e+05 4.000000000000e+00
 8 20  5 15 12  0  0.0-3.407010808587e-05-1.364242052659e-12 0.000000000000e+00
    2.000000000000e+01 3.200000000000e+01 4.101599419508e-09-6.241555272687e-01
    1.605600118637e-06 5.349393934011e-03 8.566305041313e-06 5.153669496536e+03
    4.752000000000e+05 1.154839992523e-07 2.253411799921e+00-1.043081283569e-07
    9.696634596324e-01 2.210625000000e+02-7.969895772435e-02-7.937116327040e-09
   -1.403629895391e-10 1.000000000000e+00 2.105000000000e+03 0.000000000000e+00
    2.400000000000e+00 0.000000000000e+00 5.122274160385e-09 2.000000000000e+01
    4.680000000000e+05 4.000000000000e+00
 7 20  5 15 12  0  0.0-2.816035412252e-04-8.640199666843e-12 0.000000000000e+00
    6.700000000000e+01 4.328125000000e+01 4.916990526677e-09 2.629155694728e+00
    2.127140760422e-06 1.379019906744e-02 7.148832082748e-06 5.153666267395e+03
    4.752000000000e+05-7.823109626770e-08 1.853280725724e-01-2.253800630569e-07
    9.536179590900e-01 2.395000000000e+02-2.399464820118e+00-7.965688945775e-09
    1.360770967287e-10 1.000000000000e+00 2.105000000000e+03 0.000000000000e+00
    2.400000000000e+00 0.000000000000e+00-1.117587089539e-08 6.700000000000e+01
    4.680000000000e+05 4.000000000000e+00
27 20  5 15 12  0  0.0-2.942685969174e-04-1.023181539495e-11 0.000000000000e+00
    1.600000000000e+01 3.665625000000e+01 3.978380001210e-09-7.824591039224e-01
    1.806765794754e-06 8.279968635179e-03 8.463859558105e-06 5.153666704178e+03
    4.752000000000e+05 1.881271600723e-07 2.267606210238e+00 1.043081283569e-07
    9.780911814694e-01 2.254687500000e+02 5.580890657126e-01-7.909258023772e-09
   -1.571494030463e-10 1.000000000000e+00 2.105000000000e+03 0.000000000000e+00
    2.400000000000e+00 0.000000000000e+00 1.862645149231e-09 1.600000000000e+01
    4.680000000000e+05 4.000000000000e+00
19 20  5 15 12  0  0.0-1.585101708770e-04 5.115907697473e-12 0.000000000000e+00
    1.400000000000e+01 1.631250000000e+01 3.886947621256e-09 1.818265984842e+00
    5.681067705154e-07 9.424315649085e-03 7.968395948410e-06 5.153688381195e+03
    4.752000000000e+05 1.359730958939e-07 2.371585113994e+00-1.769512891769e-07
    9.821818207981e-01 2.350000000000e+02 1.612414137144e+00-7.730321998940e-09
   -1.260766801712e-10 1.000000000000e+00 2.105000000000e+03 0.000000000000e+00
    2.400000000000e+00 0.000000000000e+00-1.536682248116e-08 1.400000000000e+01
    4.680000000000e+05 4.000000000000e+00
15 20  5 15 12  0  0.0-2.310685813427e-04 2.614797267597e-12 0.000000000000e+00
    4.100000000000e+01-1.193750000000e+01 5.207359764579e-09-1.608053046687e+00
   -6.817281246185e-07 1.225387537852e-02 9.132549166679e-06 5.153682073593e+03
    4.752000000000e+05 2.440065145493e-07-9.777252778623e-01-8.009374141693e-08
    9.280519252021e-01 1.781250000000e+02 8.770090149686e-01-8.164268645988e-09
    2.185805333280e-10 1.000000000000e+00 2.105000000000e+03 0.000000000000e+00
    2.400000000000e+00 0.000000000000e+00-1.071020960808e-08 4.100000000000e+01
    4.680000000000e+05 4.000000000000e+00
14 20  5 15 12  0  0.0-1.283921301365e-05 2.614797267597e-12 0.000000000000e+00
    3.300000000000e+01-5.625000000000e-01 4.608406244332e-09-9.936048600878e-01
    2.272427082062e-07 1.141611719504e-02 1.022592186928e-05 5.153644571304e+03
    4.752000000000e+05-5.774199962616e-08-7.927309919935e-01 2.831220626831e-07
    9.603825464165e-01 1.845312500000e+02-1.918046534611e+00-8.043549331830e-09
    2.582250418238e-10 1.000000000000e+00 2.105000000000e+03 0.000000000000e+00
    2.400000000000e+00 0.000000000000e+00-9.778887033463e-09 3.300000000000e+01
    4.680000000000e+05 4.000000000000e+00
10 20  5 15 12  0  0.0-3.416081890464e-04-1.159605744760e-11 0.000000000000e+00
    8.500000000000e+01-7.171875000000e+01 4.426970115360e-09 1.273706364423e+00
   -3.762543201447e-06 5.594488349743e-03 6.947666406631e-06 5.153667932510e+03
    4.752000000000e+05-6.146728992462e-08-1.922962850756e+00 7.264316082001e-08
    9.652798738841e-01 2.470937500000e+02-2.629978574444e+00-8.094265730086e-09
   -8.607501394126e-11 1.000000000000e+00 2.105000000000e+03 0.000000000000e+00
    2.400000000000e+00 0.000000000000e+00 2.328306436539e-09 8.500000000000e+01
    4.680000000000e+05 4.000000000000e+00
 9 20  5 15 12  0  0.0-2.176961861551e-04-7.275957614183e-12 0.000000000000e+00
    9.100000000000e+01-1.918750000000e+01 4.718053668730e-09-4.237263087358e-01
   -1.259148120880e-06 1.524824998342e-03 9.883195161819e-06 5.153734891891e+03
    4.752000000000e+05 4.284083843231e-08-8.885359697182e-01-1.117587089539e-08
    9.525675663541e-01 1.873437500000e+02 1.814760518597e+00-8.043192174096e-09
    1.921508609975e-10 1.000000000000e+00 2.105000000000e+03 0.000000000000e+00
    2.400000000000e+00 0.000000000000e+00 1.396983861923e-09 9.100000000000e+01
    4.680000000000e+05 4.000000000000e+00
 6 20  5 15 12  0  0.0-2.718945033848e-04-6.821210263297e-12 0.000000000000e+00
    7.700000000000e+01 8.125000000000e+00 4.066955119291e-09-2.759314073421e+00
    4.060566425323e-07 1.934425556101e-03 5.237758159637e-06 5.153539638519e+03
    4.752000000000e+05 5.774199962616e-08-2.968530211382e+00-1.117587089539e-08
    9.798788220118e-01 2.908125000000e+02-1.060630538011e+00-7.936044853837e-09
    1.660783464012e-10 1.000000000000e+00 2.105000000000e+03 0.000000000000e+00
    2.400000000000e+00 0.000000000000e+00 4.190951585770e-09 7.700000000000e+01
    4.680000000000e+05 4.000000000000e+00
11 20  5 15 12  0  0.0-2.767229452729e-04 1.068656274583e-11 0.000000000000e+00
    3.900000000000e+01 4.115625000000e+01 5.317721504445e-09 2.873211327687e+00
    2.246350049973e-06 1.595212297980e-02 5.882233381271e-06 5.153720703125e+03
    4.752000000000e+05 1.695007085800e-07 2.849329355353e+00 9.499490261078e-08
    9.128995346842e-01 2.386875000000e+02 1.981836963350e+00-8.334275727466e-09
    8.428922527028e-11 1.000000000000e+00 2.105000000000e+03 0.000000000000e+00
    2.400000000000e+00 0.000000000000e+00-1.257285475731e-08 3.900000000000e+01
    4.680000000000e+05 4.000000000000e+00
13 20  5 15 12  0  0.0 1.016631722450e-05 3.069544618484e-12 0.000000000000e+00
    9.800000000000e+01-1.781250000000e+00 4.353038464382e-09-1.506625295048e+00
   -1.117587089539e-08 4.108161549084e-03 9.728595614433e-06 5.153662420273e+03
    4.752000000000e+05 7.264316082001e-08-7.458451712166e-01 2.235174179077e-08
    9.678196167032e-01 1.944687500000e+02 1.090126822741e+00-7.820682905692e-09
    1.960795960737e-10 1.000000000000e+00 2.105000000000e+03 0.000000000000e+00
    2.400000000000e+00 0.000000000000e+00-1.117587089539e-08 9.800000000000e+01
    4.680000000000e+05 4.000000000000e+00
12 20  5 15 12  0  0.0 1.176828518510e-04-4.433786671143e-12 0.000000000000e+00
    5.300000000000e+01 5.000000000000e+00 4.163387707524e-09 1.936504040355e+00
   -6.519258022308e-08 8.094820543192e-03 6.929039955139e-06 5.153695610046e+03
    4.752000000000e+05-8.009374141693e-08 1.291269307464e+00-1.378357410431e-07
    9.782888056098e-01 2.541250000000e+02 1.149260698384e+00-7.824254483034e-09
   -3.835874065266e-10 1.000000000000e+00 2.105000000000e+03 0.000000000000e+00
    2.400000000000e+00 0.000000000000e+00-1.210719347000e-08 5.300000000000e+01
    4.680000000000e+05 4.000000000000e+00
32 20  5 15 12  0  0.0 2.809031866491e-04 7.617018127348e-12 0.000000000000e+00
    1.600000000000e+01-8.281250000000e+00 4.638407494005e-09-6.823422088061e-02
   -4.041939973831e-07 3.966551506892e-03 1.019798219204e-05 5.153715667725e+03
    4.752000000000e+05-1.862645149231e-09-8.802024641943e-01 8.195638656616e-08
    9.566999485872e-01 1.832812500000e+02-2.447541666872e+00-8.011047978018e-09
    2.325096849617e-10 1.000000000000e+00 2.105000000000e+03 0.000000000000e+00
    2.400000000000e+00 0.000000000000e+00 4.656612873077e-10 1.600000000000e+01
    4.680000000000e+05 4.000000000000e+00
29 20  5 15 12  0  0.0-1.048492267728e-04-8.867573342286e-12 0.000000000000e+00
    8.300000000000e+01 3.328125000000e+01 3.791586506226e-09-3.818056465491e-01
    1.708045601845e-06 1.452407916076e-03 7.865950465202e-06 5.153586534500e+03
    4.752000000000e+05-9.126961231232e-08 2.337666647348e+00 2.980232238770e-08
    9.856408159877e-01 2.416875000000e+02 1.908621787290e+00-7.711749796762e-09
   -7.821754378894e-11 1.000000000000e+00 2.105000000000e+03 0.000000000000e+00
    2.400000000000e+00 0.000000000000e+00-9.778887033463e-09 8.300000000000e+01
    4.680000000000e+05 4.000000000000e+00
